{
  "type": "FeatureCollection",
  "features": [
    {
      "type": "Feature",
      "properties": {
        "norad_id": 32376,
        "name": "COSMO-SKYMED 2",
        "group": "resource",
        "lat": 71.36346079110928,
        "lon": 157.94857205108823,
        "alt_km": 614.7334459248441,
        "timestamp": "2025-12-27T02:10:15.844640+00:00",
        "meta_object_name": "COSMO-SKYMED 2",
        "meta_object_id": "2007-059A",
        "meta_epoch": "2025-12-26T19:21:42.179616",
        "meta_mean_motion": 14.82160072,
        "meta_eccentricity": 0.0001295,
        "meta_inclination": 97.8807,
        "meta_ra_of_asc_node": 181.9188,
        "meta_arg_of_pericenter": 83.1489,
        "meta_mean_anomaly": 276.9871,
        "meta_ephemeris_type": 0,
        "meta_classification_type": "U",
        "meta_norad_cat_id": 32376,
        "meta_element_set_no": 999,
        "meta_rev_at_epoch": 97646,
        "meta_bstar": 8.4526e-05,
        "meta_mean_motion_dot": 6.21e-06,
        "meta_mean_motion_ddot": 0,
        "tle_line1": "1 32376U 07059A   25360.80673819  .00000621  00000+0  84526-4 0  9997",
        "tle_line2": "2 32376  97.8807 181.9188 0001295  83.1489 276.9871 14.82160072976461"
      },
      "geometry": {
        "type": "Point",
        "coordinates": [
          157.94857205108823,
          71.36346079110928
        ]
      }
    },
    {
      "type": "Feature",
      "properties": {
        "norad_id": 32382,
        "name": "RADARSAT-2",
        "group": "resource",
        "lat": -31.043407581130396,
        "lon": -179.74212825446517,
        "alt_km": 798.2270034560333,
        "timestamp": "2025-12-27T02:10:15.844650+00:00",
        "meta_object_name": "RADARSAT-2",
        "meta_object_id": "2007-061A",
        "meta_epoch": "2025-12-26T21:49:38.449056",
        "meta_mean_motion": 14.29985477,
        "meta_eccentricity": 0.0001142,
        "meta_inclination": 98.5801,
        "meta_ra_of_asc_node": 5.2933,
        "meta_arg_of_pericenter": 86.6696,
        "meta_mean_anomaly": 273.4617,
        "meta_ephemeris_type": 0,
        "meta_classification_type": "U",
        "meta_norad_cat_id": 32382,
        "meta_element_set_no": 999,
        "meta_rev_at_epoch": 94133,
        "meta_bstar": 4.2169e-05,
        "meta_mean_motion_dot": 6.5e-07,
        "meta_mean_motion_ddot": 0,
        "tle_line1": "1 32382U 07061A   25360.90947279  .00000065  00000+0  42169-4 0  9991",
        "tle_line2": "2 32382  98.5801   5.2933 0001142  86.6696 273.4617 14.29985477941338"
      },
      "geometry": {
        "type": "Point",
        "coordinates": [
          -179.74212825446517,
          -31.043407581130396
        ]
      }
    },
    {
      "type": "Feature",
      "properties": {
        "norad_id": 32783,
        "name": "CARTOSAT-2A",
        "group": "resource",
        "lat": 46.74020422535853,
        "lon": 42.09815180840254,
        "alt_km": 628.6339325858762,
        "timestamp": "2025-12-27T02:10:15.844661+00:00",
        "meta_object_name": "CARTOSAT-2A",
        "meta_object_id": "2008-021A",
        "meta_epoch": "2025-12-26T21:05:12.419808",
        "meta_mean_motion": 14.78954753,
        "meta_eccentricity": 0.0010849,
        "meta_inclination": 97.7907,
        "meta_ra_of_asc_node": 50.2586,
        "meta_arg_of_pericenter": 317.2821,
        "meta_mean_anomaly": 42.7547,
        "meta_ephemeris_type": 0,
        "meta_classification_type": "U",
        "meta_norad_cat_id": 32783,
        "meta_element_set_no": 999,
        "meta_rev_at_epoch": 95333,
        "meta_bstar": 5.1353e-05,
        "meta_mean_motion_dot": 3.29e-06,
        "meta_mean_motion_ddot": 0,
        "tle_line1": "1 32783U 08021A   25360.87861597  .00000329  00000+0  51353-4 0  9995",
        "tle_line2": "2 32783  97.7907  50.2586 0010849 317.2821  42.7547 14.78954753953331"
      },
      "geometry": {
        "type": "Point",
        "coordinates": [
          42.09815180840254,
          46.74020422535853
        ]
      }
    },
    {
      "type": "Feature",
      "properties": {
        "norad_id": 33320,
        "name": "HUANJING 1A (HJ-1A)",
        "group": "resource",
        "lat": 36.410154827165286,
        "lon": 174.48339301236544,
        "alt_km": 627.9979766398455,
        "timestamp": "2025-12-27T02:10:15.844671+00:00",
        "meta_object_name": "HUANJING 1A (HJ-1A)",
        "meta_object_id": "2008-041A",
        "meta_epoch": "2025-12-26T20:40:18.128352",
        "meta_mean_motion": 14.8343855,
        "meta_eccentricity": 0.0019011,
        "meta_inclination": 97.6555,
        "meta_ra_of_asc_node": 348.5705,
        "meta_arg_of_pericenter": 349.1672,
        "meta_mean_anomaly": 10.9131,
        "meta_ephemeris_type": 0,
        "meta_classification_type": "U",
        "meta_norad_cat_id": 33320,
        "meta_element_set_no": 999,
        "meta_rev_at_epoch": 93285,
        "meta_bstar": 0.00024089,
        "meta_mean_motion_dot": 1.933e-05,
        "meta_mean_motion_ddot": 0,
        "tle_line1": "1 33320U 08041A   25360.86132093  .00001933  00000+0  24089-3 0  9993",
        "tle_line2": "2 33320  97.6555 348.5705 0019011 349.1672  10.9131 14.83438550932859"
      },
      "geometry": {
        "type": "Point",
        "coordinates": [
          174.48339301236544,
          36.410154827165286
        ]
      }
    },
    {
      "type": "Feature",
      "properties": {
        "norad_id": 33321,
        "name": "HUANJING 1B (HJ-1B)",
        "group": "resource",
        "lat": -25.85681372605295,
        "lon": -3.8199806711006166,
        "alt_km": 611.29936626168,
        "timestamp": "2025-12-27T02:10:15.844681+00:00",
        "meta_object_name": "HUANJING 1B (HJ-1B)",
        "meta_object_id": "2008-041B",
        "meta_epoch": "2025-12-26T21:25:46.037280",
        "meta_mean_motion": 14.82859937,
        "meta_eccentricity": 0.0037639,
        "meta_inclination": 97.6413,
        "meta_ra_of_asc_node": 352.2606,
        "meta_arg_of_pericenter": 30.8984,
        "meta_mean_anomaly": 329.4434,
        "meta_ephemeris_type": 0,
        "meta_classification_type": "U",
        "meta_norad_cat_id": 33321,
        "meta_element_set_no": 999,
        "meta_rev_at_epoch": 93287,
        "meta_bstar": 0.00020607,
        "meta_mean_motion_dot": 1.638e-05,
        "meta_mean_motion_ddot": 0,
        "tle_line1": "1 33321U 08041B   25360.89289395  .00001638  00000+0  20607-3 0  9999",
        "tle_line2": "2 33321  97.6413 352.2606 0037639  30.8984 329.4434 14.82859937932872"
      },
      "geometry": {
        "type": "Point",
        "coordinates": [
          -3.8199806711006166,
          -25.85681372605295
        ]
      }
    },
    {
      "type": "Feature",
      "properties": {
        "norad_id": 33331,
        "name": "GEOEYE 1",
        "group": "resource",
        "lat": 71.45121751672085,
        "lon": -82.61672250119253,
        "alt_km": 672.0545914100403,
        "timestamp": "2025-12-27T02:10:15.844691+00:00",
        "meta_object_name": "GEOEYE 1",
        "meta_object_id": "2008-042A",
        "meta_epoch": "2025-12-26T19:07:38.499168",
        "meta_mean_motion": 14.64718939,
        "meta_eccentricity": 0.000308,
        "meta_inclination": 98.1236,
        "meta_ra_of_asc_node": 71.8994,
        "meta_arg_of_pericenter": 224.3607,
        "meta_mean_anomaly": 135.735,
        "meta_ephemeris_type": 0,
        "meta_classification_type": "U",
        "meta_norad_cat_id": 33331,
        "meta_element_set_no": 999,
        "meta_rev_at_epoch": 92491,
        "meta_bstar": 0.00012629,
        "meta_mean_motion_dot": 6.25e-06,
        "meta_mean_motion_ddot": 0,
        "tle_line1": "1 33331U 08042A   25360.79697337  .00000625  00000+0  12629-3 0  9999",
        "tle_line2": "2 33331  98.1236  71.8994 0003080 224.3607 135.7350 14.64718939924918"
      },
      "geometry": {
        "type": "Point",
        "coordinates": [
          -82.61672250119253,
          71.45121751672085
        ]
      }
    },
    {
      "type": "Feature",
      "properties": {
        "norad_id": 33396,
        "name": "THEOS",
        "group": "resource",
        "lat": -1.6348952282450755,
        "lon": -121.49202297929592,
        "alt_km": 828.1505310622015,
        "timestamp": "2025-12-27T02:10:15.844702+00:00",
        "meta_object_name": "THEOS",
        "meta_object_id": "2008-049A",
        "meta_epoch": "2025-12-26T20:14:45.998016",
        "meta_mean_motion": 14.2009943,
        "meta_eccentricity": 0.0001194,
        "meta_inclination": 98.5843,
        "meta_ra_of_asc_node": 58.5155,
        "meta_arg_of_pericenter": 91.9411,
        "meta_mean_anomaly": 268.1902,
        "meta_ephemeris_type": 0,
        "meta_classification_type": "U",
        "meta_norad_cat_id": 33396,
        "meta_element_set_no": 999,
        "meta_rev_at_epoch": 89350,
        "meta_bstar": 2.2038e-05,
        "meta_mean_motion_dot": 4e-08,
        "meta_mean_motion_ddot": 0,
        "tle_line1": "1 33396U 08049A   25360.84358794  .00000004  00000+0  22038-4 0  9991",
        "tle_line2": "2 33396  98.5843  58.5155 0001194  91.9411 268.1902 14.20099430893507"
      },
      "geometry": {
        "type": "Point",
        "coordinates": [
          -121.49202297929592,
          -1.6348952282450755
        ]
      }
    }
  ]
}